     2.10           G: GLONASS NAV DATA                     RINEX VERSION / TYPE
teqc  2009Mar23                         20180102 00:19:09UTCPGM / RUN BY / DATE
    18                                                      LEAP SECONDS
Linux 2.4.20-8|Pentium IV|gcc -static|Linux|486/DX+         COMMENT
teqc  2009Mar23                         20180101 01:05:06UTCCOMMENT
  2018     1     1    1.164153218269D-08                    CORR TO SYSTEM TIME
                                                            END OF HEADER
 6 18  1  1  2 45  0.0 1.242989674211D-04 0.000000000000D+00 1.035000000000D+04
   -1.897477539062D+03-2.511535644531D+00 0.000000000000D+00 0.000000000000D+00
    1.193269189453D+04-1.778069496155D+00 0.000000000000D+00-4.000000000000D+00
    2.245036767578D+04 7.295322418213D-01-3.725290298462D-09 0.000000000000D+00
14 18  1  1  3 15  0.0 2.348236739635D-05 0.000000000000D+00 1.080000000000D+04
    2.918246582031D+03 2.465495109558D+00 3.725290298462D-09 0.000000000000D+00
   -1.358558251953D+04-1.580102920532D+00-5.587935447693D-09-7.000000000000D+00
    2.140404150391D+04-1.340642929077D+00 0.000000000000D+00 0.000000000000D+00
 6 18  1  1  3 15  0.0 1.242998987436D-04 0.000000000000D+00 1.080000000000D+04
   -6.709260742188D+03-2.792400360107D+00 0.000000000000D+00 0.000000000000D+00
    9.021563476562D+03-1.427832603455D+00 0.000000000000D+00-4.000000000000D+00
    2.287733789062D+04-2.582921981812D-01-3.725290298462D-09 0.000000000000D+00
13 18  1  1  3 15  0.0-6.069429218769D-06 0.000000000000D+00 1.080000000000D+04
    1.705533691406D+04 1.052118301392D+00 2.793967723846D-09 0.000000000000D+00
   -1.619864013672D+04-8.663330078125D-01-6.519258022308D-09-2.000000000000D+00
    9.851223144531D+03-3.241132736206D+00 1.862645149231D-09 0.000000000000D+00
15 18  1  1  3 15  0.0-4.673376679420D-06 0.000000000000D+00 1.080000000000D+04
   -1.113126074219D+04 2.643362998962D+00 2.793967723846D-09 0.000000000000D+00
   -5.211451660156D+03-1.545816421509D+00-1.862645149231D-09 0.000000000000D+00
    2.234490917969D+04 9.660520553589D-01-1.862645149231D-09 0.000000000000D+00
 5 18  1  1  3 15  0.0-2.221260219812D-04-6.366462912410D-12 1.080000000000D+04
   -2.107185742188D+04-1.755336761475D+00 1.862645149231D-09 0.000000000000D+00
   -3.218407226562D+03-7.828311920166D-01 9.313225746155D-10 1.000000000000D+00
    1.400123339844D+04-2.817864418030D+00-1.862645149231D-09 0.000000000000D+00
24 18  1  1  3 15  0.0-1.605078577995D-04 0.000000000000D+00 1.080000000000D+04
    5.832540039062D+03-1.283006668091D-01 4.656612873077D-09 0.000000000000D+00
   -2.053644726562D+04 1.917890548706D+00-5.587935447693D-09 2.000000000000D+00
    1.393285498047D+04 2.877467155457D+00 9.313225746155D-10 0.000000000000D+00
23 18  1  1  3 15  0.0 1.276303082705D-04 1.818989403546D-12 1.080000000000D+04
    1.019943359375D+04 3.313922882080D-02 1.862645149231D-09 0.000000000000D+00
   -5.607714843750D+03 3.111628532410D+00-4.656612873077D-09 3.000000000000D+00
    2.269522851562D+04 7.538776397705D-01-9.313225746155D-10 0.000000000000D+00
17 18  1  1  3 15  0.0 9.748805314302D-05 2.728484105319D-12 1.080000000000D+04
   -1.779029785156D+03-2.083940505981D-01 4.656612873077D-09 0.000000000000D+00
   -2.534885009766D+04-3.288297653198D-01-2.793967723846D-09 4.000000000000D+00
   -2.427066894531D+03 3.564309120178D+00 2.793967723846D-09 0.000000000000D+00
14 18  1  1  3 45  0.0 2.348888665438D-05 0.000000000000D+00 1.260000000000D+04
    6.842066406250D+03 1.869343757629D+00 2.793967723846D-09 0.000000000000D+00
   -1.652824316406D+04-1.646795272827D+00-6.519258022308D-09-7.000000000000D+00
    1.819564746094D+04-2.201181411743D+00 9.313225746155D-10 0.000000000000D+00
 6 18  1  1  3 45  0.0 1.243008300662D-04 0.000000000000D+00 1.260000000000D+04
   -1.178207128906D+04-2.794626235962D+00 9.313225746155D-10 0.000000000000D+00
    6.867232910156D+03-9.536523818970D-01 0.000000000000D+00-4.000000000000D+00
    2.153227294922D+04-1.226567268372D+00-3.725290298462D-09 0.000000000000D+00
13 18  1  1  3 45  0.0-6.070360541344D-06 0.000000000000D+00 1.260000000000D+04
    1.823816210938D+04 2.729043960571D-01 9.313225746155D-10 0.000000000000D+00
   -1.743864550781D+04-4.703168869019D-01-6.519258022308D-09-2.000000000000D+00
    3.711486328125D+03-3.536450386047D+00 2.793967723846D-09 0.000000000000D+00
15 18  1  1  3 45  0.0-4.674308001995D-06 0.000000000000D+00 1.260000000000D+04
   -6.487348632812D+03 2.470567703247D+00 2.793967723846D-09 0.000000000000D+00
   -8.422170898438D+03-1.996116638184D+00-3.725290298462D-09 0.000000000000D+00
    2.319761474609D+04-2.444553375244D-02-9.313225746155D-10 0.000000000000D+00
24 18  1  1  3 45  0.0-1.605087891221D-04 0.000000000000D+00 1.260000000000D+04
    5.931396484375D+03 2.644977569580D-01 2.793967723846D-09 0.000000000000D+00
   -1.649623144531D+04 2.531254768372D+00-6.519258022308D-09 2.000000000000D+00
    1.850560791016D+04 2.170292854309D+00 0.000000000000D+00 0.000000000000D+00
23 18  1  1  3 45  0.0 1.276340335608D-04 1.818989403546D-12 1.260000000000D+04
    1.069049560547D+04 5.106830596924D-01 0.000000000000D+00 0.000000000000D+00
    6.040625000000D+01 3.133460998535D+00-3.725290298462D-09 3.000000000000D+00
    2.315726025391D+04-2.438392639160D-01-1.862645149231D-09 0.000000000000D+00
17 18  1  1  3 45  0.0 9.749364107847D-05 2.728484105319D-12 1.260000000000D+04
   -2.103053222656D+03-1.103754043579D-01 3.725290298462D-09 0.000000000000D+00
   -2.512684472656D+04 5.698871612549D-01-4.656612873077D-09 4.000000000000D+00
    3.999613281250D+03 3.530183792114D+00 2.793967723846D-09 0.000000000000D+00
 7 18  1  1  3 45  0.0-2.628657966852D-05 0.000000000000D+00 1.428000000000D+04
    6.039157714844D+03-2.676183700562D+00-9.313225746155D-10 0.000000000000D+00
    1.303772509766D+04-1.073075294495D+00-9.313225746155D-10 5.000000000000D+00
    2.111027392578D+04 1.426918029785D+00-2.793967723846D-09 0.000000000000D+00
14 18  1  1  4 15  0.0 2.348888665438D-05 0.000000000000D+00 1.440000000000D+04
    9.590488769531D+03 1.177918434143D+00 9.313225746155D-10 0.000000000000D+00
   -1.935112841797D+04-1.443479537964D+00-7.450580596924D-09-7.000000000000D+00
    1.358185156250D+04-2.892053604126D+00 1.862645149231D-09 0.000000000000D+00
13 18  1  1  4 15  0.0-6.071291863918D-06 0.000000000000D+00 1.440000000000D+04
    1.810856445312D+04-3.891429901123D-01 0.000000000000D+00 0.000000000000D+00
   -1.775987695312D+04 1.442012786865D-01-4.656612873077D-09-2.000000000000D+00
   -2.715386718750D+03-3.558134078979D+00 3.725290298462D-09 0.000000000000D+00
15 18  1  1  4 15  0.0-4.674308001995D-06 0.000000000000D+00 1.440000000000D+04
   -2.383631835938D+03 2.054979324341D+00 1.862645149231D-09 0.000000000000D+00
   -1.227816064453D+04-2.248588562012D+00-5.587935447693D-09 0.000000000000D+00
    2.225910009766D+04-1.011310577393D+00 0.000000000000D+00 0.000000000000D+00
24 18  1  1  4 15  0.0-1.605106517673D-04 0.000000000000D+00 1.440000000000D+04
    6.851141113281D+03 7.672395706177D-01 9.313225746155D-10 0.000000000000D+00
   -1.158798242188D+04 2.872631072998D+00-5.587935447693D-09 2.000000000000D+00
    2.164472265625D+04 1.294915199280D+00 0.000000000000D+00 0.000000000000D+00
23 18  1  1  4 15  0.0 1.276396214962D-04 1.818989403546D-12 1.440000000000D+04
    1.199821582031D+04 9.224529266357D-01-9.313225746155D-10 0.000000000000D+00
    5.487380859375D+03 2.847929954529D+00-2.793967723846D-09 3.000000000000D+00
    2.182874804688D+04-1.222702026367D+00-1.862645149231D-09 0.000000000000D+00
17 18  1  1  4 15  0.0 9.749922901392D-05 2.728484105319D-12 1.440000000000D+04
   -2.036372070312D+03 2.195272445679D-01 2.793967723846D-09 0.000000000000D+00
   -2.335232128906D+04 1.377342224121D+00-6.519258022308D-09 4.000000000000D+00
    1.011781640625D+04 3.223799705505D+00 1.862645149231D-09 0.000000000000D+00
 7 18  1  1  4 15  0.0-2.628844231367D-05 0.000000000000D+00 1.440000000000D+04
    8.611494140625D+02-3.032933235168D+00 0.000000000000D+00 0.000000000000D+00
    1.139662988281D+04-7.255468368530D-01 0.000000000000D+00 5.000000000000D+00
    2.283228417969D+04 4.739952087402D-01-3.725290298462D-09 0.000000000000D+00
18 18  1  1  4 15  0.0 1.794099807739D-04 9.094947017729D-13 1.512000000000D+04
   -9.957155761719D+03-4.614553451538D-01 2.793967723846D-09 0.000000000000D+00
   -2.242365917969D+04-8.465461730957D-01-1.862645149231D-09-3.000000000000D+00
   -6.850741210938D+03 3.437852859497D+00 2.793967723846D-09 0.000000000000D+00
16 18  1  1  4 15  0.0 8.239038288593D-05 0.000000000000D+00 1.560000000000D+04
   -1.652912646484D+04 1.809213638306D+00 1.862645149231D-09 0.000000000000D+00
    4.828656738281D+03-1.836502075195D+00 0.000000000000D+00-1.000000000000D+00
    1.875217431641D+04 2.075983047485D+00-2.793967723846D-09 0.000000000000D+00
14 18  1  1  4 45  0.0 2.348981797695D-05 0.000000000000D+00 1.620000000000D+04
    1.109322753906D+04 5.039997100830D-01 0.000000000000D+00 0.000000000000D+00
   -2.156297607422D+04-9.720430374146D-01-6.519258022308D-09-7.000000000000D+00
    7.918520996094D+03-3.359726905823D+00 2.793967723846D-09 0.000000000000D+00
18 18  1  1  4 45  0.0 1.794118434191D-04 9.094947017729D-13 1.620000000000D+04
   -1.060767431641D+04-2.194910049438D-01 2.793967723846D-09 0.000000000000D+00
   -2.315826806641D+04 2.378940582275D-02-4.656612873077D-09-3.000000000000D+00
   -4.769414062500D+02 3.597962379456D+00 2.793967723846D-09 0.000000000000D+00
13 18  1  1  4 45  0.0-6.071291863918D-06 0.000000000000D+00 1.620000000000D+04
    1.696071630859D+04-8.466711044312D-01-1.862645149231D-09 0.000000000000D+00
   -1.683575585938D+04 8.974275588989D-01-2.793967723846D-09-2.000000000000D+00
   -8.932322265625D+03-3.304744720459D+00 3.725290298462D-09 0.000000000000D+00
